IDEFIX & ARIANE 42P R/B 
1 27422U 02021B   26014.79658645  .00000176  00000+0  83555-4 0  9998
2 27422  98.5818 314.0649 0011761 351.8997   8.1995 14.30978698236315
AQUA                    
1 27424U 02022A   26014.95771208  .00000635  00000+0  13698-3 0  9990
2 27424  98.4081 341.3843 0002041  78.4446 353.0856 14.61820693260881
CZ-4B R/B               
1 27432U 02024C   26014.62709689  .00000023  00000+0  34546-4 0  9996
2 27432  98.8950  68.2763 0050307 175.4727 344.3052 14.14535628221598
MIDORI II (ADEOS-II)    
1 27597U 02056A   26014.96919341  .00000196  00000+0  95020-4 0  9993
2 27597  98.7681 333.1083 0001719 117.8341 242.3015 14.29234995202622
H-2A R/B                
1 27601U 02056E   26014.89221036  .00000219  00000+0  91473-4 0  9992
2 27601  98.3109 337.3381 0069616 322.8065  54.0117 14.33711106206407
CZ-4B R/B               
1 28059U 03049C   26014.95002220  .00000295  00000+0  79308-4 0  9999
2 28059  98.6815   7.7739 0048960  36.8207 323.6335 14.54947986178782
CZ-2C R/B               
1 28222U 04012C   26014.13299652  .00027818  00000+0  36466-3 0  9996
2 28222  97.7368  74.4895 0017037 148.7337 211.4935 15.58369430195763
SL-16 R/B               
1 28353U 04021B   26014.29104822 -.00000004  00000+0  22474-4 0  9996
2 28353  71.0029 346.6522 0003119 145.5311 214.6015 14.14592641115142
CZ-4B R/B               
1 28415U 04035C   26014.57405735  .00004626  00000+0  16943-3 0  9994
2 28415  97.3579  49.4876 0033445 157.8974 202.3716 15.27989890171648
CZ-2C R/B               
1 28480U 04046B   26014.77454019  .00000122  00000+0  61255-4 0  9993
2 28480  98.2001 293.1031 0138676 314.7304  44.2655 14.26965597100816
ARIANE 5 R/B            
1 28499U 04049H   26014.93751317  .00000781  00000+0  92721-4 0  9998
2 28499  98.2544 181.4155 0084689 164.5358 195.8473 14.85119288137812
CZ-2D R/B               
1 28738U 05024B   26015.00658834  .00020407  00000+0  30040-3 0  9999
2 28738  97.3621  28.3789 0004202 191.3163 168.7998 15.55458847131428
