CCSDS_OMM_VERS = 2.0
CREATION_DATE  = 
ORIGINATOR     = 

OBJECT_NAME    = IDEFIX & ARIANE 42P R/B
OBJECT_ID      = 2002-021B
CENTER_NAME    = EARTH
REF_FRAME      = TEME
TIME_SYSTEM    = UTC
MEAN_ELEMENT_THEORY = SGP/SGP4

EPOCH          = 2026-01-14T19:07:05.069280
MEAN_MOTION    = 14.30978698
ECCENTRICITY   = .0011761
INCLINATION    = 98.5818
RA_OF_ASC_NODE = 314.0649
ARG_OF_PERICENTER = 351.8997
MEAN_ANOMALY   = 8.1995

EPHEMERIS_TYPE = 0
CLASSIFICATION_TYPE = U
NORAD_CAT_ID   = 27422
ELEMENT_SET_NO = 999
REV_AT_EPOCH   = 23631
BSTAR          = .83555E-4
MEAN_MOTION_DOT = .176E-5
MEAN_MOTION_DDOT = 0

CCSDS_OMM_VERS = 2.0
CREATION_DATE  = 
ORIGINATOR     = 

OBJECT_NAME    = AQUA
OBJECT_ID      = 2002-022A
CENTER_NAME    = EARTH
REF_FRAME      = TEME
TIME_SYSTEM    = UTC
MEAN_ELEMENT_THEORY = SGP/SGP4

EPOCH          = 2026-01-14T22:59:06.323712
MEAN_MOTION    = 14.61820693
ECCENTRICITY   = .00020411
INCLINATION    = 98.4081
RA_OF_ASC_NODE = 341.3843
ARG_OF_PERICENTER = 78.4446
MEAN_ANOMALY   = 353.0856

EPHEMERIS_TYPE = 0
CLASSIFICATION_TYPE = U
NORAD_CAT_ID   = 27424
ELEMENT_SET_NO = 999
REV_AT_EPOCH   = 26088
BSTAR          = .13698303E-3
MEAN_MOTION_DOT = .635E-5
MEAN_MOTION_DDOT = 0

CCSDS_OMM_VERS = 2.0
CREATION_DATE  = 
ORIGINATOR     = 

OBJECT_NAME    = CZ-4B R/B
OBJECT_ID      = 2002-024C
CENTER_NAME    = EARTH
REF_FRAME      = TEME
TIME_SYSTEM    = UTC
MEAN_ELEMENT_THEORY = SGP/SGP4

EPOCH          = 2026-01-14T15:03:01.171296
MEAN_MOTION    = 14.14535628
ECCENTRICITY   = .0050307
INCLINATION    = 98.8950
RA_OF_ASC_NODE = 68.2763
ARG_OF_PERICENTER = 175.4727
MEAN_ANOMALY   = 344.3052

EPHEMERIS_TYPE = 0
CLASSIFICATION_TYPE = U
NORAD_CAT_ID   = 27432
ELEMENT_SET_NO = 999
REV_AT_EPOCH   = 22159
BSTAR          = .34546E-4
MEAN_MOTION_DOT = .23E-6
MEAN_MOTION_DDOT = 0

CCSDS_OMM_VERS = 2.0
CREATION_DATE  = 
ORIGINATOR     = 

OBJECT_NAME    = MIDORI II (ADEOS-II)
OBJECT_ID      = 2002-056A
CENTER_NAME    = EARTH
REF_FRAME      = TEME
TIME_SYSTEM    = UTC
MEAN_ELEMENT_THEORY = SGP/SGP4

EPOCH          = 2026-01-14T23:15:38.310624
MEAN_MOTION    = 14.29234995
ECCENTRICITY   = .00017191
INCLINATION    = 98.7681
RA_OF_ASC_NODE = 333.1083
ARG_OF_PERICENTER = 117.8341
MEAN_ANOMALY   = 242.3015

EPHEMERIS_TYPE = 0
CLASSIFICATION_TYPE = U
NORAD_CAT_ID   = 27597
ELEMENT_SET_NO = 999
REV_AT_EPOCH   = 20262
BSTAR          = .95019788E-4
MEAN_MOTION_DOT = .196E-5
MEAN_MOTION_DDOT = 0

CCSDS_OMM_VERS = 2.0
CREATION_DATE  = 
ORIGINATOR     = 

OBJECT_NAME    = H-2A R/B
OBJECT_ID      = 2002-056E
CENTER_NAME    = EARTH
REF_FRAME      = TEME
TIME_SYSTEM    = UTC
MEAN_ELEMENT_THEORY = SGP/SGP4

EPOCH          = 2026-01-14T21:24:46.975104
MEAN_MOTION    = 14.33711106
ECCENTRICITY   = .00696169
INCLINATION    = 98.3109
RA_OF_ASC_NODE = 337.3381
ARG_OF_PERICENTER = 322.8065
MEAN_ANOMALY   = 54.0117

EPHEMERIS_TYPE = 0
CLASSIFICATION_TYPE = U
NORAD_CAT_ID   = 27601
ELEMENT_SET_NO = 999
REV_AT_EPOCH   = 20640
BSTAR          = .91472737E-4
MEAN_MOTION_DOT = .219E-5
MEAN_MOTION_DDOT = 0

CCSDS_OMM_VERS = 2.0
CREATION_DATE  = 
ORIGINATOR     = 

OBJECT_NAME    = CZ-4B R/B
OBJECT_ID      = 2003-049C
CENTER_NAME    = EARTH
REF_FRAME      = TEME
TIME_SYSTEM    = UTC
MEAN_ELEMENT_THEORY = SGP/SGP4

EPOCH          = 2026-01-14T22:48:01.918080
MEAN_MOTION    = 14.54947986
ECCENTRICITY   = .00489608
INCLINATION    = 98.6815
RA_OF_ASC_NODE = 7.7739
ARG_OF_PERICENTER = 36.8207
MEAN_ANOMALY   = 323.6335

EPHEMERIS_TYPE = 0
CLASSIFICATION_TYPE = U
NORAD_CAT_ID   = 28059
ELEMENT_SET_NO = 999
REV_AT_EPOCH   = 17878
BSTAR          = .79307647E-4
MEAN_MOTION_DOT = .295E-5
MEAN_MOTION_DDOT = 0

CCSDS_OMM_VERS = 2.0
CREATION_DATE  = 
ORIGINATOR     = 

OBJECT_NAME    = CZ-2C R/B
OBJECT_ID      = 2004-012C
CENTER_NAME    = EARTH
REF_FRAME      = TEME
TIME_SYSTEM    = UTC
MEAN_ELEMENT_THEORY = SGP/SGP4

EPOCH          = 2026-01-14T03:11:30.899328
MEAN_MOTION    = 15.58369430
ECCENTRICITY   = .00170372
INCLINATION    = 97.7368
RA_OF_ASC_NODE = 74.4895
ARG_OF_PERICENTER = 148.7337
MEAN_ANOMALY   = 211.4935

EPHEMERIS_TYPE = 0
CLASSIFICATION_TYPE = U
NORAD_CAT_ID   = 28222
ELEMENT_SET_NO = 999
REV_AT_EPOCH   = 19576
BSTAR          = .36465925E-3
MEAN_MOTION_DOT = .27818E-3
MEAN_MOTION_DDOT = 0

CCSDS_OMM_VERS = 2.0
CREATION_DATE  = 
ORIGINATOR     = 

OBJECT_NAME    = SL-16 R/B
OBJECT_ID      = 2004-021B
CENTER_NAME    = EARTH
REF_FRAME      = TEME
TIME_SYSTEM    = UTC
MEAN_ELEMENT_THEORY = SGP/SGP4

EPOCH          = 2026-01-14T06:59:06.566208
MEAN_MOTION    = 14.14592641
ECCENTRICITY   = .00031191
INCLINATION    = 71.0029
RA_OF_ASC_NODE = 346.6522
ARG_OF_PERICENTER = 145.5311
MEAN_ANOMALY   = 214.6015

EPHEMERIS_TYPE = 0
CLASSIFICATION_TYPE = U
NORAD_CAT_ID   = 28353
ELEMENT_SET_NO = 999
REV_AT_EPOCH   = 11514
BSTAR          = .22474157E-4
MEAN_MOTION_DOT = -.4E-7
MEAN_MOTION_DDOT = 0

CCSDS_OMM_VERS = 2.0
CREATION_DATE  = 
ORIGINATOR     = 

OBJECT_NAME    = CZ-4B R/B
OBJECT_ID      = 2004-035C
CENTER_NAME    = EARTH
REF_FRAME      = TEME
TIME_SYSTEM    = UTC
MEAN_ELEMENT_THEORY = SGP/SGP4

EPOCH          = 2026-01-14T13:46:38.555040
MEAN_MOTION    = 15.27989890
ECCENTRICITY   = .0033445
INCLINATION    = 97.3579
RA_OF_ASC_NODE = 49.4876
ARG_OF_PERICENTER = 157.8974
MEAN_ANOMALY   = 202.3716

EPHEMERIS_TYPE = 0
CLASSIFICATION_TYPE = U
NORAD_CAT_ID   = 28415
ELEMENT_SET_NO = 999
REV_AT_EPOCH   = 17164
BSTAR          = .16943E-3
MEAN_MOTION_DOT = .4626E-4
MEAN_MOTION_DDOT = 0

CCSDS_OMM_VERS = 2.0
CREATION_DATE  = 
ORIGINATOR     = 

OBJECT_NAME    = CZ-2C R/B
OBJECT_ID      = 2004-046B
CENTER_NAME    = EARTH
REF_FRAME      = TEME
TIME_SYSTEM    = UTC
MEAN_ELEMENT_THEORY = SGP/SGP4

EPOCH          = 2026-01-14T18:35:20.272416
MEAN_MOTION    = 14.26965597
ECCENTRICITY   = .0138676
INCLINATION    = 98.2001
RA_OF_ASC_NODE = 293.1031
ARG_OF_PERICENTER = 314.7304
MEAN_ANOMALY   = 44.2655

EPHEMERIS_TYPE = 0
CLASSIFICATION_TYPE = U
NORAD_CAT_ID   = 28480
ELEMENT_SET_NO = 999
REV_AT_EPOCH   = 10081
BSTAR          = .61255E-4
MEAN_MOTION_DOT = .122E-5
MEAN_MOTION_DDOT = 0

CCSDS_OMM_VERS = 2.0
CREATION_DATE  = 
ORIGINATOR     = 

OBJECT_NAME    = ARIANE 5 R/B
OBJECT_ID      = 2004-049H
CENTER_NAME    = EARTH
REF_FRAME      = TEME
TIME_SYSTEM    = UTC
MEAN_ELEMENT_THEORY = SGP/SGP4

EPOCH          = 2026-01-14T22:30:01.137888
MEAN_MOTION    = 14.85119288
ECCENTRICITY   = .00846891
INCLINATION    = 98.2544
RA_OF_ASC_NODE = 181.4155
ARG_OF_PERICENTER = 164.5358
MEAN_ANOMALY   = 195.8473

EPHEMERIS_TYPE = 0
CLASSIFICATION_TYPE = U
NORAD_CAT_ID   = 28499
ELEMENT_SET_NO = 999
REV_AT_EPOCH   = 13781
BSTAR          = .92721199E-4
MEAN_MOTION_DOT = .781E-5
MEAN_MOTION_DDOT = 0

CCSDS_OMM_VERS = 2.0
CREATION_DATE  = 
ORIGINATOR     = 

OBJECT_NAME    = CZ-2D R/B
OBJECT_ID      = 2005-024B
CENTER_NAME    = EARTH
REF_FRAME      = TEME
TIME_SYSTEM    = UTC
MEAN_ELEMENT_THEORY = SGP/SGP4

EPOCH          = 2026-01-15T00:09:29.232576
MEAN_MOTION    = 15.55458847
ECCENTRICITY   = .0004202
INCLINATION    = 97.3621
RA_OF_ASC_NODE = 28.3789
ARG_OF_PERICENTER = 191.3163
MEAN_ANOMALY   = 168.7998

EPHEMERIS_TYPE = 0
CLASSIFICATION_TYPE = U
NORAD_CAT_ID   = 28738
ELEMENT_SET_NO = 999
REV_AT_EPOCH   = 13142
BSTAR          = .30040459E-3
MEAN_MOTION_DOT = .20407E-3
MEAN_MOTION_DDOT = 0

